[
    {
        "OBJECT_NAME": "BEIDOU-3 M11",
        "OBJECT_ID": "2018-067B",
        "EPOCH": "2026-07-10T03:11:55.832640",
        "MEAN_MOTION": 1.86227244,
        "ECCENTRICITY": 0.00046186,
        "INCLINATION": 54.1791,
        "RA_OF_ASC_NODE": 180.2259,
        "ARG_OF_PERICENTER": 13.9452,
        "MEAN_ANOMALY": 346.0721,
        "EPHEMERIS_TYPE": 0,
        "CLASSIFICATION_TYPE": "U",
        "NORAD_CAT_ID": 43603,
        "ELEMENT_SET_NO": 999,
        "REV_AT_EPOCH": 5357,
        "BSTAR": 0,
        "MEAN_MOTION_DOT": 1.1e-06,
        "MEAN_MOTION_DDOT": 0
    },
    {
        "OBJECT_NAME": "BEIDOU-3 M13",
        "OBJECT_ID": "2018-072A",
        "EPOCH": "2026-07-07T22:33:50.636160",
        "MEAN_MOTION": 1.86231557,
        "ECCENTRICITY": 0.0006453,
        "INCLINATION": 56.6422,
        "RA_OF_ASC_NODE": 61.9754,
        "ARG_OF_PERICENTER": 332.0824,
        "MEAN_ANOMALY": 27.945,
        "EPHEMERIS_TYPE": 0,
        "CLASSIFICATION_TYPE": "U",
        "NORAD_CAT_ID": 43622,
        "ELEMENT_SET_NO": 999,
        "REV_AT_EPOCH": 5304,
        "BSTAR": 0,
        "MEAN_MOTION_DOT": -4.5e-07,
        "MEAN_MOTION_DDOT": 0
    },
    {
        "OBJECT_NAME": "BEIDOU-3 M14",
        "OBJECT_ID": "2018-072B",
        "EPOCH": "2026-07-08T08:13:17.910624",
        "MEAN_MOTION": 1.86231219,
        "ECCENTRICITY": 0.00055201,
        "INCLINATION": 56.6446,
        "RA_OF_ASC_NODE": 61.9559,
        "ARG_OF_PERICENTER": 10.5134,
        "MEAN_ANOMALY": 349.5598,
        "EPHEMERIS_TYPE": 0,
        "CLASSIFICATION_TYPE": "U",
        "NORAD_CAT_ID": 43623,
        "ELEMENT_SET_NO": 999,
        "REV_AT_EPOCH": 5304,
        "BSTAR": 0,
        "MEAN_MOTION_DOT": -4.6e-07,
        "MEAN_MOTION_DDOT": 0
    },
    {
        "OBJECT_NAME": "BEIDOU-3 M16",
        "OBJECT_ID": "2018-078A",
        "EPOCH": "2026-07-07T10:10:07.711968",
        "MEAN_MOTION": 1.86232245,
        "ECCENTRICITY": 0.00067519,
        "INCLINATION": 54.0702,
        "RA_OF_ASC_NODE": 299.2766,
        "ARG_OF_PERICENTER": 40.2464,
        "MEAN_ANOMALY": 319.8292,
        "EPHEMERIS_TYPE": 0,
        "CLASSIFICATION_TYPE": "U",
        "NORAD_CAT_ID": 43647,
        "ELEMENT_SET_NO": 999,
        "REV_AT_EPOCH": 5253,
        "BSTAR": 0,
        "MEAN_MOTION_DOT": -6.2e-07,
        "MEAN_MOTION_DDOT": 0
    },
    {
        "OBJECT_NAME": "BEIDOU-3 M15",
        "OBJECT_ID": "2018-078B",
        "EPOCH": "2026-07-06T11:29:52.466208",
        "MEAN_MOTION": 1.86232415,
        "ECCENTRICITY": 0.00037704,
        "INCLINATION": 54.0667,
        "RA_OF_ASC_NODE": 299.3099,
        "ARG_OF_PERICENTER": 58.5392,
        "MEAN_ANOMALY": 301.5247,
        "EPHEMERIS_TYPE": 0,
        "CLASSIFICATION_TYPE": "U",
        "NORAD_CAT_ID": 43648,
        "ELEMENT_SET_NO": 999,
        "REV_AT_EPOCH": 5253,
        "BSTAR": 0,
        "MEAN_MOTION_DOT": -6e-07,
        "MEAN_MOTION_DDOT": 0
    },
    {
        "OBJECT_NAME": "BEIDOU-3 G1",
        "OBJECT_ID": "2018-085A",
        "EPOCH": "2026-07-10T05:48:42.940224",
        "MEAN_MOTION": 1.00272939,
        "ECCENTRICITY": 0.00081988,
        "INCLINATION": 2.9232,
        "RA_OF_ASC_NODE": 96.7668,
        "ARG_OF_PERICENTER": 355.1748,
        "MEAN_ANOMALY": 83.348,
        "EPHEMERIS_TYPE": 0,
        "CLASSIFICATION_TYPE": "U",
        "NORAD_CAT_ID": 43683,
        "ELEMENT_SET_NO": 999,
        "REV_AT_EPOCH": 2829,
        "BSTAR": 0,
        "MEAN_MOTION_DOT": -1.01e-06,
        "MEAN_MOTION_DDOT": 0
    },
    {
        "OBJECT_NAME": "BEIDOU-3 M17",
        "OBJECT_ID": "2018-093A",
        "EPOCH": "2026-07-09T08:36:45.180000",
        "MEAN_MOTION": 1.86228235,
        "ECCENTRICITY": 0.0010162,
        "INCLINATION": 54.17,
        "RA_OF_ASC_NODE": 181.5443,
        "ARG_OF_PERICENTER": 293.4624,
        "MEAN_ANOMALY": 88.7509,
        "EPHEMERIS_TYPE": 0,
        "CLASSIFICATION_TYPE": "U",
        "NORAD_CAT_ID": 43706,
        "ELEMENT_SET_NO": 999,
        "REV_AT_EPOCH": 5195,
        "BSTAR": 0,
        "MEAN_MOTION_DOT": 1.18e-06,
        "MEAN_MOTION_DDOT": 0
    },
    {
        "OBJECT_NAME": "BEIDOU-3 M18",
        "OBJECT_ID": "2018-093B",
        "EPOCH": "2026-07-10T06:18:55.393632",
        "MEAN_MOTION": 1.86226366,
        "ECCENTRICITY": 0.00080333,
        "INCLINATION": 54.171,
        "RA_OF_ASC_NODE": 181.506,
        "ARG_OF_PERICENTER": 322.2689,
        "MEAN_ANOMALY": 37.6812,
        "EPHEMERIS_TYPE": 0,
        "CLASSIFICATION_TYPE": "U",
        "NORAD_CAT_ID": 43707,
        "ELEMENT_SET_NO": 999,
        "REV_AT_EPOCH": 5196,
        "BSTAR": 0,
        "MEAN_MOTION_DOT": 1.1e-06,
        "MEAN_MOTION_DDOT": 0
    },
    {
        "OBJECT_NAME": "BEIDOU-3 IGSO-1",
        "OBJECT_ID": "2019-023A",
        "EPOCH": "2026-07-08T11:34:14.074176",
        "MEAN_MOTION": 1.00285216,
        "ECCENTRICITY": 0.00255829,
        "INCLINATION": 58.7247,
        "RA_OF_ASC_NODE": 37.4318,
        "ARG_OF_PERICENTER": 224.0549,
        "MEAN_ANOMALY": 317.4664,
        "EPHEMERIS_TYPE": 0,
        "CLASSIFICATION_TYPE": "U",
        "NORAD_CAT_ID": 44204,
        "ELEMENT_SET_NO": 999,
        "REV_AT_EPOCH": 742,
        "BSTAR": 0,
        "MEAN_MOTION_DOT": -2.09e-06,
        "MEAN_MOTION_DDOT": 0
    },
    {
        "OBJECT_NAME": "BEIDOU-2 G8",
        "OBJECT_ID": "2019-027A",
        "EPOCH": "2026-07-10T07:26:57.840288",
        "MEAN_MOTION": 1.00273453,
        "ECCENTRICITY": 0.00098224,
        "INCLINATION": 1.713,
        "RA_OF_ASC_NODE": 74.5112,
        "ARG_OF_PERICENTER": 283.4901,
        "MEAN_ANOMALY": 186.4833,
        "EPHEMERIS_TYPE": 0,
        "CLASSIFICATION_TYPE": "U",
        "NORAD_CAT_ID": 44231,
        "ELEMENT_SET_NO": 999,
        "REV_AT_EPOCH": 2631,
        "BSTAR": 0,
        "MEAN_MOTION_DOT": -2.38e-06,
        "MEAN_MOTION_DDOT": 0
    },
    {
        "OBJECT_NAME": "BEIDOU-3 IGSO-2",
        "OBJECT_ID": "2019-035A",
        "EPOCH": "2026-07-10T07:19:51.023424",
        "MEAN_MOTION": 1.00259088,
        "ECCENTRICITY": 0.00396081,
        "INCLINATION": 55.2507,
        "RA_OF_ASC_NODE": 158.6604,
        "ARG_OF_PERICENTER": 216.3201,
        "MEAN_ANOMALY": 141.9995,
        "EPHEMERIS_TYPE": 0,
        "CLASSIFICATION_TYPE": "U",
        "NORAD_CAT_ID": 44337,
        "ELEMENT_SET_NO": 999,
        "REV_AT_EPOCH": 2589,
        "BSTAR": 0,
        "MEAN_MOTION_DOT": -8.7e-07,
        "MEAN_MOTION_DDOT": 0
    },
    {
        "OBJECT_NAME": "BEIDOU-3 M24",
        "OBJECT_ID": "2019-061A",
        "EPOCH": "2026-07-09T19:04:06.197952",
        "MEAN_MOTION": 1.86229286,
        "ECCENTRICITY": 0.00085912,
        "INCLINATION": 54.3976,
        "RA_OF_ASC_NODE": 181.9655,
        "ARG_OF_PERICENTER": 359.537,
        "MEAN_ANOMALY": 0.4709,
        "EPHEMERIS_TYPE": 0,
        "CLASSIFICATION_TYPE": "U",
        "NORAD_CAT_ID": 44542,
        "ELEMENT_SET_NO": 999,
        "REV_AT_EPOCH": 4621,
        "BSTAR": 0,
        "MEAN_MOTION_DOT": 1.16e-06,
        "MEAN_MOTION_DDOT": 0
    },
    {
        "OBJECT_NAME": "BEIDOU-3 M23",
        "OBJECT_ID": "2019-061B",
        "EPOCH": "2026-07-08T10:30:33.647616",
        "MEAN_MOTION": 1.86227401,
        "ECCENTRICITY": 0.00058609,
        "INCLINATION": 54.396,
        "RA_OF_ASC_NODE": 181.9796,
        "ARG_OF_PERICENTER": 339.6838,
        "MEAN_ANOMALY": 102.2392,
        "EPHEMERIS_TYPE": 0,
        "CLASSIFICATION_TYPE": "U",
        "NORAD_CAT_ID": 44543,
        "ELEMENT_SET_NO": 999,
        "REV_AT_EPOCH": 4619,
        "BSTAR": 0,
        "MEAN_MOTION_DOT": 1.22e-06,
        "MEAN_MOTION_DDOT": 0
    }
]